[{"OBJECT_NAME":"HORS 2","OBJECT_ID":"2023-091AG","EPOCH":"2026-03-09T22:11:34.810944","MEAN_MOTION":15.2928008,"ECCENTRICITY":0.00098173,"INCLINATION":97.5195,"RA_OF_ASC_NODE":134.7443,"ARG_OF_PERICENTER":79.3164,"MEAN_ANOMALY":280.9181,"EPHEMERIS_TYPE":0,"CLASSIFICATION_TYPE":"U","NORAD_CAT_ID":57196,"ELEMENT_SET_NO":999,"REV_AT_EPOCH":14934,"BSTAR":0.00059338338,"MEAN_MOTION_DOT":0.00016821,"MEAN_MOTION_DDOT":0},{"OBJECT_NAME":"STARLINK-34189","OBJECT_ID":"2025-110AB","EPOCH":"2026-03-09T06:23:59.595072","MEAN_MOTION":15.30192207,"ECCENTRICITY":0.00011688,"INCLINATION":53.1615,"RA_OF_ASC_NODE":29.0131,"ARG_OF_PERICENTER":119.4968,"MEAN_ANOMALY":240.6149,"EPHEMERIS_TYPE":0,"CLASSIFICATION_TYPE":"U","NORAD_CAT_ID":64121,"ELEMENT_SET_NO":999,"REV_AT_EPOCH":4581,"BSTAR":0.00072221482,"MEAN_MOTION_DOT":0.00021086,"MEAN_MOTION_DDOT":0}]
